#dP2022  1 22  0  0  0.00000000      96 __u+U ITR00 FIT  IAC
## 2193 518400.00000000   900.00000000 59601 0.0000000000000
+  112   C06C07C08C09C10C11C12C13C14C16C19C20C21C22C23C24C25
+        C26C27C28C29C30C32C33C34C35C36C37C38C39C40C41C42C43
+        C44C45C46E01E02E03E04E05E07E08E09E11E12E13E14E15E18
+        E19E21E24E25E26E27E30E31E33E36G01G02G03G04G05G06G07
+        G08G09G10G11G12G13G14G15G16G17G18G19G20G21G23G24G25
+        G26G27G28G29G30G31G32R01R02R03R04R05R07R08R09R11R12
+        R13R14R15R17R18R19R20R21R22R24  0  0  0  0  0  0  0
++         8  7  7  8  7  8  6  7  8  8  7  9  7  7  8  6  6
++         7  8  8  6  7  6  6  7  7  6  8  9  8  8  7  7  9
++         7  6  7  7  6  6  7  5  6  7  7  7  5  7  5  5  6
++         6  6  6  6  6  5  6  6  5  6  5  5  6  7  6  6  6
++         6  7  7  5  7  7  6  6  6  7  6  7  6  5  6  6  4
++         6  6  6  8  7  6  5  8  6  7  7  7  6  8  7  7  7
++         7  7  5  7  5  7  7  6  8  8  0  0  0  0  0  0  0
%c M  cc GPS ccc cccc cccc cccc cccc ccccc ccccc ccccc ccccc
%c cc cc ccc ccc cccc cccc cccc cccc ccccc ccccc ccccc ccccc
%f  0.0000000  0.000000000  0.00000000000  0.000000000000000
%f  0.0000000  0.000000000  0.00000000000  0.000000000000000
%i    0    0    0    0      0      0      0      0         0
%i    0    0    0    0      0      0      0      0         0
/* INFORMATION & ANALYSIS CENTER (IAC)      ULTRA-RAPID DATA
/* S/V CLOCKS ARE ALIGNED TO GNSS TIME                      
/* G:C1WC2W R:C1PC2P E:C1XC5X C:C2IC6I J:C1CC2S             
/* PCV:IGS14_2188 OL/AL:FES2004  NONE     YN ORB:CoN CLK:CoN
*  2022 01 22  2 30  0.00000000
PC06  -6787.443057  23741.667909  34165.369355    -81.946026
PC07 -16817.738093  35929.461569 -14454.477048     42.459832
PC08  -1855.382303  37943.435627 -18093.210653     77.356163
PC09   2731.046999  26448.461434  33136.836109   -455.337760
PC10 -11059.375217  35877.829153 -19369.643559    139.670209
PC11 -25048.319350 -11686.054513   4028.939939   -255.905574
PC12 -11502.025791 -17069.528413  18891.682121   -434.652429
PC13   2473.871786  40115.451146 -12152.246171   -139.768725
PC14 -16897.397633  -4882.503726 -21656.585438    465.802167
PC16  -9648.736353  22280.942117  34599.833294     62.317656
PC19  21864.611066  -4227.313393  16833.605601    906.989055
PC20  10553.577992  11777.476021  23005.646772   -808.796565
PC21   7819.834179 -21667.717637 -15725.050054   -968.540284
PC22  20968.083932 -18386.707071    623.112051   -958.940074
PC23 -11727.496295  15165.232448  20271.888362   -970.564475
PC24 -11856.427602 -23414.130025   9517.211942   -944.695602
PC25 -16999.720242  -4512.388154  21660.573809   -791.051195
PC26  -1507.133092 -27107.389533  -6558.085427    790.147530
PC27   1363.672215  16745.805001 -22299.983131    665.140476
PC28 -17947.445836   8278.678047 -19694.944992     23.648113
PC29  27069.379334   4188.564151   5346.211633    504.644680
PC30  19995.606507  14977.140798 -12462.093518    491.691603
PC32  -7691.046451  21761.709747  15702.881315   -959.410439
PC33 -21833.137666   4294.059293 -16843.679848   -954.975709
PC34 -20641.430972 -14690.587112  11664.237168   -486.467473
PC35  18283.714005  -8522.279653  19295.022013    103.990180
PC36  16894.029846   5417.157334 -21520.416576   -874.671545
PC37    112.258556  26849.984314   7558.559634   -948.677358
PC38  -6968.700076  34592.114614 -22941.184258    205.839797
PC39 -13918.901511  20856.952767  33873.158710     34.698360
PC40 -23831.781105  32120.416656 -13586.059013    237.698729
PC41 -21051.967388  18284.981050   -967.020463   -926.089539
PC42  -9776.181325 -12505.473172 -22909.065543   -929.200985
PC43 -27083.727972  -4703.389230  -4731.188616   -946.537079
PC44  -1619.896622 -16751.665810  22248.223444    539.453157
PC45  11485.801298 -15405.002457 -20250.516190    660.101857
PC46  12489.715171  22490.123437 -10761.855666   -127.261041
PE01   1991.879999 -28026.196214   9336.482821   -564.112250
PE02  -1864.665902  27963.986069  -9488.018370    275.164484
PE03    874.208007  17227.073708  24049.667152   -519.588709
PE04 -20938.250059  -8830.117615 -18965.218848   -947.892211
PE05 -20074.537332  15657.580798  15097.496917   -216.386271
PE07  29063.698618  -4994.441294   2524.619263   -630.943525
PE08  21275.789701   8378.546429  18789.121041   5868.167176
PE09 -29040.532847   5271.955003  -2321.685587   5386.934259
PE11 -21508.138760  -3734.533148 -19983.604879   4626.877127
PE12 -21684.898142 -19894.209203  -3089.937714   4798.189362
PE13  21728.336556   4341.904830  19640.553954    425.858392
PE14  25331.933116   3799.358630  -5501.541840  -1718.533877
PE15  21706.395521  19908.381754   2986.466849    767.902191
PE18 -29048.597827   7285.092762  -8336.138145  -1884.188468
PE19   2022.294913 -17500.267226 -23787.148305    483.469461
PE21  13565.727987 -24929.164367  -8433.770638   -712.633871
PE24 -18018.207305   5845.286591  22722.127377  -1348.228608
PE25 -13681.607427  24769.170127   8666.037938   -561.065509
PE26   8264.854806 -14575.075632  24412.587753   -715.451692
PE27  18044.835330  -7325.773615 -22295.855486   -214.879655
PE30  11249.929506  15584.380863 -22514.777035   -211.287010
PE31 -11868.734066 -14475.377326  22937.390248   -491.088385
PE33  -8863.509651 -23681.614934  15393.032134   -460.163501
PE36  -8976.773274  13688.623496 -24652.044504   -321.411234
PG01  19120.555521   9398.744000  15800.271201    451.160810
PG02 -14444.918102 -21945.410152   4083.835032   -649.213841
PG03  16337.343802  -1599.398872  20754.353376    -87.928125
PG04  26363.175513    941.116266   3446.200278   -193.799018
PG05  -9325.415082 -14574.784547 -20271.469263    -68.726738
PG06  -1665.291948 -21052.145745  16135.422161    177.903712
PG07  13642.125421  -7048.299809 -21316.701512    303.954728
PG08  21874.115877   7070.883543 -13618.373746    -53.118305
PG09  24213.700176  -8012.729705  -7543.011447   -357.125660
PG10 -11436.427964  23779.782361   -647.678261   -299.711209
PG11 -11750.015801 -23562.720632   3553.325339    -66.987659
PG12 -15419.446565  -2145.577941  21237.794539   -159.386474
PG13 -14903.222860 -13008.272077 -17953.728301    249.163163
PG14  12870.176356 -23161.493023  -1217.581552    -73.938579
PG15 -22805.190939  -5187.779955 -13289.501251    -89.733855
PG16   4928.673149  17747.687782 -19218.308304   -458.993803
PG17  13630.494866 -13170.248004  19062.756752    564.685002
PG18 -12923.653967   7669.254732 -21903.151528    256.139159
PG19   4924.771776 -14374.390729  21503.276100    108.708015
PG20  -3669.529681 -22715.896985 -13489.061360    517.062280
PG21  20528.101450  15519.212652   8431.945269    156.599892
PG23 -16210.386497  17544.704724 -11528.127051      8.799410
PG24 -20848.089069 -11857.023237  11552.183168    276.976986
PG25 -17545.093127  11037.017817  16165.933601    274.376959
PG26  -3011.273366  24740.073330  -8801.977722    176.495422
PG27  12223.355312  12669.303142 -20196.615694     81.652533
PG28   8200.052829 -24386.438770   7575.423395    417.077788
PG29 -25878.423439   3687.120583  -4923.827579   -470.382374
PG30   6682.408525 -16205.930440 -19819.142232   -508.359154
PG31   3001.925568  22146.832984  13858.517223   -161.077349
PG32  -8695.906344  15071.923162  20138.245254    -54.422988
PR01  21724.412462 -13307.341991   1182.087810      7.128853
PR02  10395.693235 -15710.684068 -17192.856844    507.271440
PR03  -6709.196429  -8672.361410 -22987.845815     50.310563
PR04 -19666.214958   3247.462046 -15883.765580    124.563139
PR05 -21820.176846  13184.160638     37.210077     86.369612
PR07   7476.308280   8209.358143  23002.752822     30.906124
PR08  19764.843688  -3257.690953  15863.961414    -63.206651
PR09  -1343.437422  25024.252638   4963.158723     35.361076
PR11  10802.858777   6227.318962 -22246.957922     46.844363
PR12   8880.992083 -13849.415282 -19482.350532    296.927792
PR13   1878.648352 -24708.072319  -6090.441577    -17.343799
PR14  -6665.119153 -21356.564740  12251.118806     73.487457
PR15 -10907.542556  -5552.838156  22394.393978     98.732432
PR17 -17151.468304 -15228.893393  11214.318397    494.724862
PR18 -22815.490207  -9902.478883  -5514.352427    104.646071
PR19 -17245.039936   -533.123433 -18781.837823   -175.301499
PR20    615.655153  11980.532083 -22503.758669    -63.489346
PR21  17988.049228  15097.234729  -9924.275326   -271.937451
PR22  22792.051916   9599.134964   6446.940219   -159.643600
PR24  -1305.306448 -12648.339001  22137.667026     76.729018
EOF
